COMMENT,ORIGINATOR,NORAD_CAT_ID,OBJECT_NAME,OBJECT_TYPE,CLASSIFICATION_TYPE,INTLDES,EPOCH,EPOCH_MICROSECONDS,MEAN_MOTION,ECCENTRICITY,INCLINATION,RA_OF_ASC_NODE,ARG_OF_PERICENTER,MEAN_ANOMALY,EPHEMERIS_TYPE,ELEMENT_SET_NO,REV_AT_EPOCH,BSTAR,MEAN_MOTION_DOT,MEAN_MOTION_DDOT,FILE,TLE_LINE0,TLE_LINE1,TLE_LINE2,OBJECT_ID,OBJECT_NUMBER,SEMIMAJOR_AXIS,PERIOD,APOGEE,PERIGEE,DECAYED
"GENERATED VIA SPACETRACK.ORG API","18 SPCS","55100","SPACEBEE-158","PAYLOAD","U","23001CV","2024-02-11 03:27:06","986304","15.33337697","0.001111","97.4423","106.6731","241.0915","118.9213","0","999","6153","0.001653","0.00053585","0","4185591","0 SPACEBEE-158","1 55100U 23001CV  24042.14383086  .00053585  00000-0  16530-2 0  9995","2 55100  97.4423 106.6731 0011110 241.0915 118.9213 15.33337697 61539","2023-001CV","55100","6843.999","93.913","473.468","458.261","0"
"GENERATED VIA SPACETRACK.ORG API","18 SPCS","55100","SPACEBEE-158","PAYLOAD","U","23001CV","2024-02-11 17:32:51","682272","15.33401394","0.0011153","97.4418","107.2642","238.6679","121.3472","0","999","6162","0.0017567","0.00057093","0","4185871","0 SPACEBEE-158","1 55100U 23001CV  24042.73115373  .00057093  00000-0  17567-2 0  9991","2 55100  97.4418 107.2642 0011153 238.6679 121.3472 15.33401394 61628","2023-001CV","55100","6843.810","93.909","473.308","458.042","0"
"GENERATED VIA SPACETRACK.ORG API","18 SPCS","55100","SPACEBEE-158","PAYLOAD","U","23001CV","2024-02-12 02:56:40","294176","15.33441634","0.0011163","97.4419","107.6588","236.8503","123.1669","0","999","6168","0.0016133","0.00052461","0","4186491","0 SPACEBEE-158","1 55100U 23001CV  24043.12268859  .00052461  00000-0  16133-2 0  9995","2 55100  97.4419 107.6588 0011163 236.8503 123.1669 15.33441634 61684","2023-001CV","55100","6843.690","93.906","473.195","457.916","0"
"GENERATED VIA SPACETRACK.ORG API","18 SPCS","55100","SPACEBEE-158","PAYLOAD","U","23001CV","2024-02-12 17:02:21","403680","15.33506414","0.001106","97.4417","108.2504","234.8797","125.1409","0","999","6177","0.0015271","0.00049736","0","4186677","0 SPACEBEE-158","1 55100U 23001CV  24043.70996995  .00049736  00000-0  15271-2 0  9991","2 55100  97.4417 108.2504 0011060 234.8797 125.1409 15.33506414 61778","2023-001CV","55100","6843.497","93.902","472.931","457.794","0"
"GENERATED VIA SPACETRACK.ORG API","18 SPCS","55100","SPACEBEE-158","PAYLOAD","U","23001CV","2024-02-12 17:02:21","403680","15.33506414","0.001106","97.4417","108.2504","234.8797","125.1409","0","999","6177","0.0015271","0.00049736","0","4186778","0 SPACEBEE-158","1 55100U 23001CV  24043.70996995  .00049736  00000-0  15271-2 0  9991","2 55100  97.4417 108.2504 0011060 234.8797 125.1409 15.33506414 61778","2023-001CV","55100","6843.497","93.902","472.931","457.794","0"
"GENERATED VIA SPACETRACK.ORG API","18 SPCS","55100","SPACEBEE-158","PAYLOAD","U","23001CV","2024-02-13 10:15:55","506528","15.33580601","0.0011104","97.4414","108.9732","231.6482","128.3763","0","999","6188","0.0015437","0.000504","0","4187441","0 SPACEBEE-158","1 55100U 23001CV  24044.42772577  .00050400  00000-0  15437-2 0  9993","2 55100  97.4414 108.9732 0011104 231.6482 128.3763 15.33580601 61880","2023-001CV","55100","6843.277","93.898","472.741","457.543","0"
"GENERATED VIA SPACETRACK.ORG API","18 SPCS","55100","SPACEBEE-158","PAYLOAD","U","23001CV","2024-02-13 16:31:45","375168","15.33611197","0.0011147","97.4414","109.2362","231.1728","128.852","0","999","6192","0.0017137","0.00056055","0","4187767","0 SPACEBEE-158","1 55100U 23001CV  24044.68871962  .00056055  00000-0  17137-2 0  9990","2 55100  97.4414 109.2362 0011147 231.1728 128.8520 15.33611197 61924","2023-001CV","55100","6843.186","93.896","472.679","457.423","0"
"GENERATED VIA SPACETRACK.ORG API","18 SPCS","55100","SPACEBEE-158","PAYLOAD","U","23001CV","2024-02-14 03:29:26","561184","15.33665725","0.0011212","97.4412","109.6959","229.2397","130.7873","0","999","6199","0.0018379","0.00060261","0","4188003","0 SPACEBEE-158","1 55100U 23001CV  24045.14544631  .00060261  00000-0  18379-2 0  9995","2 55100  97.4412 109.6959 0011212 229.2397 130.7873 15.33665725 61997","2023-001CV","55100","6843.024","93.893","472.561","457.216","0"
"GENERATED VIA SPACETRACK.ORG API","18 SPCS","55100","SPACEBEE-158","PAYLOAD","U","23001CV","2024-02-14 03:29:26","561184","15.33665725","0.0011212","97.4412","109.6959","229.2397","130.7873","0","999","6199","0.0018379","0.00060261","0","4188404","0 SPACEBEE-158","1 55100U 23001CV  24045.14544631  .00060261  00000-0  18379-2 0  9995","2 55100  97.4412 109.6959 0011212 229.2397 130.7873 15.33665725 61997","2023-001CV","55100","6843.024","93.893","472.561","457.216","0"
"GENERATED VIA SPACETRACK.ORG API","18 SPCS","55100","SPACEBEE-158","PAYLOAD","U","23001CV","2024-02-14 16:01:03","378144","15.337221","0.0011186","97.4411","110.2221","227.7903","132.2391","0","999","6207","0.0015255","0.00050026","0","4188727","0 SPACEBEE-158","1 55100U 23001CV  24045.66740021  .00050026  00000-0  15255-2 0  9991","2 55100  97.4411 110.2221 0011186 227.7903 132.2391 15.33722100 62075","2023-001CV","55100","6842.856","93.889","472.375","457.066","0"
"GENERATED VIA SPACETRACK.ORG API","18 SPCS","55100","SPACEBEE-158","PAYLOAD","U","23001CV","2024-02-15 02:58:41","775168","15.33771898","0.0011227","97.4413","110.6819","225.8481","134.184","0","999","6214","0.0017816","0.00058596","0","4189284","0 SPACEBEE-158","1 55100U 23001CV  24046.12409462  .00058596  00000-0  17816-2 0  9999","2 55100  97.4413 110.6819 0011227 225.8481 134.1840 15.33771898 62146","2023-001CV","55100","6842.708","93.886","472.255","456.890","0"
"GENERATED VIA SPACETRACK.ORG API","18 SPCS","55100","SPACEBEE-158","PAYLOAD","U","23001CV","2024-02-15 02:58:41","775168","15.33771898","0.0011227","97.4413","110.6819","225.8481","134.184","0","999","6214","0.0017816","0.00058596","0","4189324","0 SPACEBEE-158","1 55100U 23001CV  24046.12409462  .00058596  00000-0  17816-2 0  9999","2 55100  97.4413 110.6819 0011227 225.8481 134.1840 15.33771898 62146","2023-001CV","55100","6842.708","93.886","472.255","456.890","0"
"GENERATED VIA SPACETRACK.ORG API","18 SPCS","55100","SPACEBEE-158","PAYLOAD","U","23001CV","2024-02-15 17:04:12","226368","15.3382708","0.0011139","97.4412","111.2739","223.7424","136.2937","0","999","6223","0.0014649","0.00048183","0","4189601","0 SPACEBEE-158","1 55100U 23001CV  24046.71125262  .00048183  00000-0  14649-2 0  9999","2 55100  97.4412 111.2739 0011139 223.7424 136.2937 15.33827080 62234","2023-001CV","55100","6842.544","93.883","472.031","456.787","0"
"GENERATED VIA SPACETRACK.ORG API","18 SPCS","55100","SPACEBEE-158","PAYLOAD","U","23001CV","2024-02-15 17:04:12","226368","15.3382708","0.0011139","97.4412","111.2739","223.7424","136.2937","0","999","6223","0.0014649","0.00048183","0","4189707","0 SPACEBEE-158","1 55100U 23001CV  24046.71125262  .00048183  00000-0  14649-2 0  9999","2 55100  97.4412 111.2739 0011139 223.7424 136.2937 15.33827080 62234","2023-001CV","55100","6842.544","93.883","472.031","456.787","0"
"GENERATED VIA SPACETRACK.ORG API","18 SPCS","55100","SPACEBEE-158","PAYLOAD","U","23001CV","2024-02-16 04:01:47","875008","15.3387834","0.0011169","97.4412","111.7338","221.6969","138.3423","0","999","6230","0.0014778","0.0004869","0","4190317","0 SPACEBEE-158","1 55100U 23001CV  24047.16791522  .00048690  00000-0  14778-2 0  9993","2 55100  97.4412 111.7338 0011169 221.6969 138.3423 15.33878340 62304","2023-001CV","55100","6842.391","93.880","471.898","456.614","0"
"GENERATED VIA SPACETRACK.ORG API","18 SPCS","55100","SPACEBEE-158","PAYLOAD","U","23001CV","2024-02-16 16:33:18","619776","15.33929915","0.0011089","97.4411","112.26","220.443","139.5989","0","999","6238","0.0017184","0.00056781","0","4190500","0 SPACEBEE-158","1 55100U 23001CV  24047.68979884  .00056781  00000-0  17184-2 0  9993","2 55100  97.4411 112.2600 0011089 220.4430 139.5989 15.33929915 62385","2023-001CV","55100","6842.238","93.877","471.690","456.515","0"
"GENERATED VIA SPACETRACK.ORG API","18 SPCS","55100","SPACEBEE-158","PAYLOAD","U","23001CV","2024-02-16 16:33:18","619776","15.33929915","0.0011089","97.4411","112.26","220.443","139.5989","0","999","6238","0.0017184","0.00056781","0","4190592","0 SPACEBEE-158","1 55100U 23001CV  24047.68979884  .00056781  00000-0  17184-2 0  9993","2 55100  97.4411 112.2600 0011089 220.4430 139.5989 15.33929915 62385","2023-001CV","55100","6842.238","93.877","471.690","456.515","0"
"GENERATED VIA SPACETRACK.ORG API","18 SPCS","55100","SPACEBEE-158","PAYLOAD","U","23001CV","2024-02-17 03:30:51","705792","15.33973242","0.0011316","97.4412","112.7194","218.1901","141.8541","0","999","6245","0.0013738","0.00045377","0","4191168","0 SPACEBEE-158","1 55100U 23001CV  24048.14643178  .00045377  00000-0  13738-2 0  9999","2 55100  97.4412 112.7194 0011316 218.1901 141.8541 15.33973242 62459","2023-001CV","55100","6842.109","93.874","471.716","456.231","0"
"GENERATED VIA SPACETRACK.ORG API","18 SPCS","55100","SPACEBEE-158","PAYLOAD","U","23001CV","2024-02-17 03:30:51","705792","15.33973242","0.0011316","97.4412","112.7194","218.1901","141.8541","0","999","6245","0.0013738","0.00045377","0","4191255","0 SPACEBEE-158","1 55100U 23001CV  24048.14643178  .00045377  00000-0  13738-2 0  9999","2 55100  97.4412 112.7194 0011316 218.1901 141.8541 15.33973242 62459","2023-001CV","55100","6842.109","93.874","471.716","456.231","0"
"GENERATED VIA SPACETRACK.ORG API","18 SPCS","55100","SPACEBEE-158","PAYLOAD","U","23001CV","2024-02-17 17:36:15","454944","15.34029964","0.0011258","97.4413","113.3112","216.1698","143.8785","0","999","6254","0.0014203","0.00047008","0","4191569","0 SPACEBEE-158","1 55100U 23001CV  24048.73351221  .00047008  00000-0  14203-2 0  9990","2 55100  97.4413 113.3112 0011258 216.1698 143.8785 15.34029964 62549","2023-001CV","55100","6841.940","93.870","471.508","456.103","0"
